[{"OBJECT_NAME":"STARLINK-1434","OBJECT_ID":"2020-035BH","EPOCH":"2026-03-09T05:47:35.213856","MEAN_MOTION":15.26724568,"ECCENTRICITY":0.00053438,"INCLINATION":53.0547,"RA_OF_ASC_NODE":22.1128,"ARG_OF_PERICENTER":88.04,"MEAN_ANOMALY":272.121,"EPHEMERIS_TYPE":0,"CLASSIFICATION_TYPE":"U","NORAD_CAT_ID":45712,"ELEMENT_SET_NO":999,"REV_AT_EPOCH":31932,"BSTAR":0.0020295208,"MEAN_MOTION_DOT":0.00054112,"MEAN_MOTION_DDOT":0},{"OBJECT_NAME":"STARLINK-32092","OBJECT_ID":"2024-086U","EPOCH":"2026-03-09T01:16:56.822016","MEAN_MOTION":15.27581312,"ECCENTRICITY":0.00016032,"INCLINATION":43.0043,"RA_OF_ASC_NODE":63.5881,"ARG_OF_PERICENTER":271.6873,"MEAN_ANOMALY":88.3795,"EPHEMERIS_TYPE":0,"CLASSIFICATION_TYPE":"U","NORAD_CAT_ID":59700,"ELEMENT_SET_NO":999,"REV_AT_EPOCH":10401,"BSTAR":1.8738806e-5,"MEAN_MOTION_DOT":2.53e-6,"MEAN_MOTION_DDOT":0}]
